IDEFIX & ARIANE 42P R/B 
1 27422U 02021B   26012.76884502  .00000275  00000+0  12109-3 0  9992
2 27422  98.5815 312.0628 0011871 357.8563   2.2567 14.30977955236027
AQUA                    
1 27424U 02022A   26012.89386441  .00000957  00000+0  20144-3 0  9993
2 27424  98.4078 339.2859 0002040  80.8725 295.9708 14.61818329260586
CZ-4B R/B               
1 27432U 02024C   26012.77844501  .00000029  00000+0  38043-4 0  9995
2 27432  98.8953  66.4350 0050208 180.7272 290.3578 14.14535288221334
MIDORI II (ADEOS-II)    
1 27597U 02056A   26012.72896146  .00000290  00000+0  13181-3 0  9994
2 27597  98.7677 330.8551 0001612 121.5006 238.6333 14.29233938202305
H-2A R/B                
1 27601U 02056E   26012.87544451  .00000332  00000+0  13133-3 0  9999
2 27601  98.3107 335.4005 0069737 328.8382  84.7378 14.33710210206111
CZ-4B R/B               
1 28059U 03049C   26012.68058679  .00000432  00000+0  11060-3 0  9999
2 28059  98.6814   5.4179 0049045  43.6327 316.8730 14.54946557178458
CZ-2C R/B               
1 28222U 04012C   26012.72030053  .00038303  00000+0  50243-3 0  9997
2 28222  97.7372  72.9546 0016978 153.8389 206.3727 15.58289582195548
SL-16 R/B               
1 28353U 04021B   26012.87679192  .00000061  00000+0  56402-4 0  9995
2 28353  71.0027 349.6199 0003231 147.8609 212.2711 14.14592485114943
CZ-4B R/B               
1 28415U 04035C   26012.80587390  .00007545  00000+0  27469-3 0  9994
2 28415  97.3581  47.7420 0033248 164.1077 196.1214 15.27973466171378
CZ-2C R/B               
1 28480U 04046B   26012.74110883  .00000205  00000+0  91754-4 0  9995
2 28480  98.2000 291.1956 0138781 320.7724  38.3463 14.26965023100522
ARIANE 5 R/B            
1 28499U 04049H   26012.71409786  .00001209  00000+0  13963-3 0  9998
2 28499  98.2542 179.1116 0084536 171.7225 188.5407 14.85115838137481
CZ-2D R/B               
1 28738U 05024B   26011.98285182  .00034538  00000+0  50919-3 0  9991
2 28738  97.3629  25.2658 0003804 204.2791 155.8284 15.55316792130959
