CCSDS_OMM_VERS = 2.0
CREATION_DATE  = 
ORIGINATOR     = 

OBJECT_NAME    = IDEFIX & ARIANE 42P R/B
OBJECT_ID      = 2002-021B
CENTER_NAME    = EARTH
REF_FRAME      = TEME
TIME_SYSTEM    = UTC
MEAN_ELEMENT_THEORY = SGP/SGP4

EPOCH          = 2026-01-12T18:27:08.209728
MEAN_MOTION    = 14.30977955
ECCENTRICITY   = .0011871
INCLINATION    = 98.5815
RA_OF_ASC_NODE = 312.0628
ARG_OF_PERICENTER = 357.8563
MEAN_ANOMALY   = 2.2567

EPHEMERIS_TYPE = 0
CLASSIFICATION_TYPE = U
NORAD_CAT_ID   = 27422
ELEMENT_SET_NO = 999
REV_AT_EPOCH   = 23602
BSTAR          = .12109E-3
MEAN_MOTION_DOT = .275E-5
MEAN_MOTION_DDOT = 0

CCSDS_OMM_VERS = 2.0
CREATION_DATE  = 
ORIGINATOR     = 

OBJECT_NAME    = AQUA
OBJECT_ID      = 2002-022A
CENTER_NAME    = EARTH
REF_FRAME      = TEME
TIME_SYSTEM    = UTC
MEAN_ELEMENT_THEORY = SGP/SGP4

EPOCH          = 2026-01-12T21:27:09.885024
MEAN_MOTION    = 14.61818329
ECCENTRICITY   = .000204
INCLINATION    = 98.4078
RA_OF_ASC_NODE = 339.2859
ARG_OF_PERICENTER = 80.8725
MEAN_ANOMALY   = 295.9708

EPHEMERIS_TYPE = 0
CLASSIFICATION_TYPE = U
NORAD_CAT_ID   = 27424
ELEMENT_SET_NO = 999
REV_AT_EPOCH   = 26058
BSTAR          = .20144E-3
MEAN_MOTION_DOT = .957E-5
MEAN_MOTION_DDOT = 0

CCSDS_OMM_VERS = 2.0
CREATION_DATE  = 
ORIGINATOR     = 

OBJECT_NAME    = CZ-4B R/B
OBJECT_ID      = 2002-024C
CENTER_NAME    = EARTH
REF_FRAME      = TEME
TIME_SYSTEM    = UTC
MEAN_ELEMENT_THEORY = SGP/SGP4

EPOCH          = 2026-01-12T18:40:57.648864
MEAN_MOTION    = 14.14535288
ECCENTRICITY   = .0050208
INCLINATION    = 98.8953
RA_OF_ASC_NODE = 66.4350
ARG_OF_PERICENTER = 180.7272
MEAN_ANOMALY   = 290.3578

EPHEMERIS_TYPE = 0
CLASSIFICATION_TYPE = U
NORAD_CAT_ID   = 27432
ELEMENT_SET_NO = 999
REV_AT_EPOCH   = 22133
BSTAR          = .38043E-4
MEAN_MOTION_DOT = .29E-6
MEAN_MOTION_DDOT = 0

CCSDS_OMM_VERS = 2.0
CREATION_DATE  = 
ORIGINATOR     = 

OBJECT_NAME    = MIDORI II (ADEOS-II)
OBJECT_ID      = 2002-056A
CENTER_NAME    = EARTH
REF_FRAME      = TEME
TIME_SYSTEM    = UTC
MEAN_ELEMENT_THEORY = SGP/SGP4

EPOCH          = 2026-01-12T17:29:42.270144
MEAN_MOTION    = 14.29233938
ECCENTRICITY   = .0001612
INCLINATION    = 98.7677
RA_OF_ASC_NODE = 330.8551
ARG_OF_PERICENTER = 121.5006
MEAN_ANOMALY   = 238.6333

EPHEMERIS_TYPE = 0
CLASSIFICATION_TYPE = U
NORAD_CAT_ID   = 27597
ELEMENT_SET_NO = 999
REV_AT_EPOCH   = 20230
BSTAR          = .13181E-3
MEAN_MOTION_DOT = .29E-5
MEAN_MOTION_DDOT = 0

CCSDS_OMM_VERS = 2.0
CREATION_DATE  = 
ORIGINATOR     = 

OBJECT_NAME    = H-2A R/B
OBJECT_ID      = 2002-056E
CENTER_NAME    = EARTH
REF_FRAME      = TEME
TIME_SYSTEM    = UTC
MEAN_ELEMENT_THEORY = SGP/SGP4

EPOCH          = 2026-01-12T21:00:38.405664
MEAN_MOTION    = 14.33710210
ECCENTRICITY   = .0069737
INCLINATION    = 98.3107
RA_OF_ASC_NODE = 335.4005
ARG_OF_PERICENTER = 328.8382
MEAN_ANOMALY   = 84.7378

EPHEMERIS_TYPE = 0
CLASSIFICATION_TYPE = U
NORAD_CAT_ID   = 27601
ELEMENT_SET_NO = 999
REV_AT_EPOCH   = 20611
BSTAR          = .13133E-3
MEAN_MOTION_DOT = .332E-5
MEAN_MOTION_DDOT = 0

CCSDS_OMM_VERS = 2.0
CREATION_DATE  = 
ORIGINATOR     = 

OBJECT_NAME    = CZ-4B R/B
OBJECT_ID      = 2003-049C
CENTER_NAME    = EARTH
REF_FRAME      = TEME
TIME_SYSTEM    = UTC
MEAN_ELEMENT_THEORY = SGP/SGP4

EPOCH          = 2026-01-12T16:20:02.698656
MEAN_MOTION    = 14.54946557
ECCENTRICITY   = .0049045
INCLINATION    = 98.6814
RA_OF_ASC_NODE = 5.4179
ARG_OF_PERICENTER = 43.6327
MEAN_ANOMALY   = 316.8730

EPHEMERIS_TYPE = 0
CLASSIFICATION_TYPE = U
NORAD_CAT_ID   = 28059
ELEMENT_SET_NO = 999
REV_AT_EPOCH   = 17845
BSTAR          = .1106E-3
MEAN_MOTION_DOT = .432E-5
MEAN_MOTION_DDOT = 0

CCSDS_OMM_VERS = 2.0
CREATION_DATE  = 
ORIGINATOR     = 

OBJECT_NAME    = CZ-2C R/B
OBJECT_ID      = 2004-012C
CENTER_NAME    = EARTH
REF_FRAME      = TEME
TIME_SYSTEM    = UTC
MEAN_ELEMENT_THEORY = SGP/SGP4

EPOCH          = 2026-01-12T17:17:13.965792
MEAN_MOTION    = 15.58289582
ECCENTRICITY   = .0016978
INCLINATION    = 97.7372
RA_OF_ASC_NODE = 72.9546
ARG_OF_PERICENTER = 153.8389
MEAN_ANOMALY   = 206.3727

EPHEMERIS_TYPE = 0
CLASSIFICATION_TYPE = U
NORAD_CAT_ID   = 28222
ELEMENT_SET_NO = 999
REV_AT_EPOCH   = 19554
BSTAR          = .50243E-3
MEAN_MOTION_DOT = .38303E-3
MEAN_MOTION_DDOT = 0

CCSDS_OMM_VERS = 2.0
CREATION_DATE  = 
ORIGINATOR     = 

OBJECT_NAME    = SL-16 R/B
OBJECT_ID      = 2004-021B
CENTER_NAME    = EARTH
REF_FRAME      = TEME
TIME_SYSTEM    = UTC
MEAN_ELEMENT_THEORY = SGP/SGP4

EPOCH          = 2026-01-12T21:02:34.821888
MEAN_MOTION    = 14.14592485
ECCENTRICITY   = .0003231
INCLINATION    = 71.0027
RA_OF_ASC_NODE = 349.6199
ARG_OF_PERICENTER = 147.8609
MEAN_ANOMALY   = 212.2711

EPHEMERIS_TYPE = 0
CLASSIFICATION_TYPE = U
NORAD_CAT_ID   = 28353
ELEMENT_SET_NO = 999
REV_AT_EPOCH   = 11494
BSTAR          = .56402E-4
MEAN_MOTION_DOT = .61E-6
MEAN_MOTION_DDOT = 0

CCSDS_OMM_VERS = 2.0
CREATION_DATE  = 
ORIGINATOR     = 

OBJECT_NAME    = CZ-4B R/B
OBJECT_ID      = 2004-035C
CENTER_NAME    = EARTH
REF_FRAME      = TEME
TIME_SYSTEM    = UTC
MEAN_ELEMENT_THEORY = SGP/SGP4

EPOCH          = 2026-01-12T19:20:27.504960
MEAN_MOTION    = 15.27973466
ECCENTRICITY   = .0033248
INCLINATION    = 97.3581
RA_OF_ASC_NODE = 47.7420
ARG_OF_PERICENTER = 164.1077
MEAN_ANOMALY   = 196.1214

EPHEMERIS_TYPE = 0
CLASSIFICATION_TYPE = U
NORAD_CAT_ID   = 28415
ELEMENT_SET_NO = 999
REV_AT_EPOCH   = 17137
BSTAR          = .27469E-3
MEAN_MOTION_DOT = .7545E-4
MEAN_MOTION_DDOT = 0

CCSDS_OMM_VERS = 2.0
CREATION_DATE  = 
ORIGINATOR     = 

OBJECT_NAME    = CZ-2C R/B
OBJECT_ID      = 2004-046B
CENTER_NAME    = EARTH
REF_FRAME      = TEME
TIME_SYSTEM    = UTC
MEAN_ELEMENT_THEORY = SGP/SGP4

EPOCH          = 2026-01-12T17:47:11.802912
MEAN_MOTION    = 14.26965023
ECCENTRICITY   = .0138781
INCLINATION    = 98.2000
RA_OF_ASC_NODE = 291.1956
ARG_OF_PERICENTER = 320.7724
MEAN_ANOMALY   = 38.3463

EPHEMERIS_TYPE = 0
CLASSIFICATION_TYPE = U
NORAD_CAT_ID   = 28480
ELEMENT_SET_NO = 999
REV_AT_EPOCH   = 10052
BSTAR          = .91754E-4
MEAN_MOTION_DOT = .205E-5
MEAN_MOTION_DDOT = 0

CCSDS_OMM_VERS = 2.0
CREATION_DATE  = 
ORIGINATOR     = 

OBJECT_NAME    = ARIANE 5 R/B
OBJECT_ID      = 2004-049H
CENTER_NAME    = EARTH
REF_FRAME      = TEME
TIME_SYSTEM    = UTC
MEAN_ELEMENT_THEORY = SGP/SGP4

EPOCH          = 2026-01-12T17:08:18.055104
MEAN_MOTION    = 14.85115838
ECCENTRICITY   = .0084536
INCLINATION    = 98.2542
RA_OF_ASC_NODE = 179.1116
ARG_OF_PERICENTER = 171.7225
MEAN_ANOMALY   = 188.5407

EPHEMERIS_TYPE = 0
CLASSIFICATION_TYPE = U
NORAD_CAT_ID   = 28499
ELEMENT_SET_NO = 999
REV_AT_EPOCH   = 13748
BSTAR          = .13963E-3
MEAN_MOTION_DOT = .1209E-4
MEAN_MOTION_DDOT = 0

CCSDS_OMM_VERS = 2.0
CREATION_DATE  = 
ORIGINATOR     = 

OBJECT_NAME    = CZ-2D R/B
OBJECT_ID      = 2005-024B
CENTER_NAME    = EARTH
REF_FRAME      = TEME
TIME_SYSTEM    = UTC
MEAN_ELEMENT_THEORY = SGP/SGP4

EPOCH          = 2026-01-11T23:35:18.397248
MEAN_MOTION    = 15.55316792
ECCENTRICITY   = .00038049
INCLINATION    = 97.3629
RA_OF_ASC_NODE = 25.2658
ARG_OF_PERICENTER = 204.2791
MEAN_ANOMALY   = 155.8284

EPHEMERIS_TYPE = 0
CLASSIFICATION_TYPE = U
NORAD_CAT_ID   = 28738
ELEMENT_SET_NO = 999
REV_AT_EPOCH   = 13095
BSTAR          = .50919195E-3
MEAN_MOTION_DOT = .34538E-3
MEAN_MOTION_DDOT = 0

